ORBCOMM FM37            
1 33064U 08031E   24321.29388800  .00003919  00000+0  56321-3 0  9999
2 33064  48.4396 274.6307 0005596 180.8219 326.5166 14.78187943882532
ORBCOMM FM40            
1 33065U 08031F   24321.36617831  .00004975  00000+0  67784-3 0  9995
2 33065  48.4417 261.5600 0007014 190.0832 314.3325 14.79994268883056
VESSELSAT 1             
1 37840U 11058C   24321.28381319  .00000502  00000+0  12919-3 0  9995
2 37840  19.9629 302.0889 0013629   5.4688 354.5864 14.11263203676199
ORBCOMM FM109           
1 40086U 14040A   24321.25102157  .00001768  00000+0  42155-3 0  9993
2 40086  47.0031 301.4540 0001741  32.1376 327.9615 14.57566454549993
ORBCOMM FM107           
1 40087U 14040B   24321.63070871  .00001705  00000+0  40828-3 0  9999
2 40087  47.0050 300.6875 0001475 357.0723   3.0154 14.57502505550164
ORBCOMM FM106           
1 40088U 14040C   24321.20715361  .00002390  00000+0  44114-3 0  9996
2 40088  47.0577 141.5764 0017624 161.0567 199.0983 14.68293163552167
ORBCOMM FM111           
1 40089U 14040D   24321.59077542  .00004671  00000+0  57468-3 0  9991
2 40089  47.0044  17.7317 0032687 258.1266 101.5964 14.83992598558624
ORBCOMM FM104           
1 40090U 14040E   24321.73329838  .00001499  00000+0  37515-3 0  9993
2 40090  47.0062 331.3069 0017555 313.3463  46.5958 14.55950429549756
